start=new Date('2021-11-30T00:00:00.000Z').valueOf();
sats=[{"MEAN_ANOMALY":"279.3556","MEAN_ELEMENT_THEORY":"SGP4","EPHEMERIS_TYPE":"0","RCS_SIZE":"LARGE","INCLINATION":"53.0524","PERIAPSIS":"545.929","MEAN_MOTION":"15.06386501","OBJECT_NAME":"STARLINK-1111","LAUNCH_DATE":"2020-01-07","ECCENTRICITY":"0.00019150","BSTAR":"0.00021807000000","CLASSIFICATION_TYPE":"U","MEAN_MOTION_DOT":"0.00002967","OBJECT_ID":"2020-001L","TIME_SYSTEM":"UTC","REF_FRAME":"TEME","OBJECT_TYPE":"PAYLOAD","CENTER_NAME":"EARTH","FILE":"3227094","TLE_LINE1":"1 44924U 20001L   21333.60647137  .00002967  00000-0  21807-3 0  9997","APOAPSIS":"548.581","EPOCH":"2021-11-29T14:33:19.126368","ARG_OF_PERICENTER":"80.7649","RA_OF_ASC_NODE":"154.5961","COUNTRY_CODE":"US","SITE":"AFETR","MEAN_MOTION_DDOT":"0.0000000000000","SEMIMAJOR_AXIS":"6925.390","NORAD_CAT_ID":"44924","REV_AT_EPOCH":"10455","ELEMENT_SET_NO":"999","GP_ID":"190748175","PERIOD":"95.593","DECAY_DATE":null,"TLE_LINE2":"2 44924  53.0524 154.5961 0001915  80.7649 279.3556 15.06386501104552"},{"EPOCH":"2021-11-29T21:16:40.499904","ARG_OF_PERICENTER":"88.5032","MEAN_MOTION_DDOT":"0.0000000000000","COUNTRY_CODE":"US","RA_OF_ASC_NODE":"153.3341","SITE":"AFETR","ELEMENT_SET_NO":"999","GP_ID":"190748903","PERIOD":"95.592","SEMIMAJOR_AXIS":"6925.332","NORAD_CAT_ID":"44925","REV_AT_EPOCH":"10459","DECAY_DATE":null,"TLE_LINE2":"2 44925  53.0531 153.3341 0001895  88.5032 271.6174 15.06405366104595","MEAN_MOTION":"15.06405366","MEAN_ANOMALY":"271.6174","MEAN_ELEMENT_THEORY":"SGP4","RCS_SIZE":"LARGE","INCLINATION":"53.0531","EPHEMERIS_TYPE":"0","PERIAPSIS":"545.885","OBJECT_NAME":"STARLINK-1112","BSTAR":"0.00009360000000","LAUNCH_DATE":"2020-01-07","ECCENTRICITY":"0.00018950","MEAN_MOTION_DOT":"0.00001113","CLASSIFICATION_TYPE":"U","REF_FRAME":"TEME","OBJECT_TYPE":"PAYLOAD","CENTER_NAME":"EARTH","TIME_SYSTEM":"UTC","OBJECT_ID":"2020-001M","FILE":"3227094","TLE_LINE1":"1 44925U 20001M   21333.88657986  .00001113  00000-0  93600-4 0  9994","APOAPSIS":"548.509"},{"TLE_LINE2":"2 44926  52.9983 153.1876 0001913  86.2767 273.8440 15.05586301105327","DECAY_DATE":null,"PERIOD":"95.644","ELEMENT_SET_NO":"999","GP_ID":"190747673","REV_AT_EPOCH":"10532","NORAD_CAT_ID":"44926","SEMIMAJOR_AXIS":"6927.844","MEAN_MOTION_DDOT":"0.0000000000000","SITE":"AFETR","COUNTRY_CODE":"US","RA_OF_ASC_NODE":"153.1876","ARG_OF_PERICENTER":"86.2767","EPOCH":"2021-11-29T22:06:13.097088","APOAPSIS":"551.034","TLE_LINE1":"1 44926U 20001N   21333.92098492 -.00000138  00000-0  96926-5 0  9993","FILE":"3227094","CENTER_NAME":"EARTH","OBJECT_TYPE":"PAYLOAD","REF_FRAME":"TEME","OBJECT_ID":"2020-001N","TIME_SYSTEM":"UTC","CLASSIFICATION_TYPE":"U","MEAN_MOTION_DOT":"-0.00000138","BSTAR":"0.00000969260000","LAUNCH_DATE":"2020-01-07","ECCENTRICITY":"0.00019130","OBJECT_NAME":"STARLINK-1113","MEAN_MOTION":"15.05586301","PERIAPSIS":"548.383","RCS_SIZE":"LARGE","INCLINATION":"52.9983","EPHEMERIS_TYPE":"0","MEAN_ANOMALY":"273.8440","MEAN_ELEMENT_THEORY":"SGP4"},{"CLASSIFICATION_TYPE":"U","MEAN_MOTION_DOT":"0.00000800","LAUNCH_DATE":"2020-01-07","BSTAR":"0.00007263100000","ECCENTRICITY":"0.00018990","OBJECT_NAME":"STARLINK-1114","PERIAPSIS":"545.914","RCS_SIZE":"LARGE","EPHEMERIS_TYPE":"0","INCLINATION":"53.0528","MEAN_ELEMENT_THEORY":"SGP4","MEAN_ANOMALY":"273.5928","MEAN_MOTION":"15.06394820","APOAPSIS":"548.545","TLE_LINE1":"1 44927U 20001P   21333.89765176  .00000800  00000-0  72631-4 0  9991","FILE":"3227094","TIME_SYSTEM":"UTC","OBJECT_ID":"2020-001P","CENTER_NAME":"EARTH","OBJECT_TYPE":"PAYLOAD","REF_FRAME":"TEME","SITE":"AFETR","COUNTRY_CODE":"US","RA_OF_ASC_NODE":"153.2842","MEAN_MOTION_DDOT":"0.0000000000000","ARG_OF_PERICENTER":"86.5278","EPOCH":"2021-11-29T21:32:37.112064","TLE_LINE2":"2 44927  53.0528 153.2842 0001899  86.5278 273.5928 15.06394820104604","DECAY_DATE":null,"REV_AT_EPOCH":"10460","NORAD_CAT_ID":"44927","SEMIMAJOR_AXIS":"6925.364","PERIOD":"95.592","GP_ID":"190747923","ELEMENT_SET_NO":"999"},{"OBJECT_NAME":"STARLINK-1119","ECCENTRICITY":"0.00020620","LAUNCH_DATE":"2020-01-07","BSTAR":"0.00012401000000","MEAN_MOTION_DOT":"0.00001566","CLASSIFICATION_TYPE":"U","MEAN_MOTION":"15.06398764","MEAN_ANOMALY":"274.5443","MEAN_ELEMENT_THEORY":"SGP4","INCLINATION":"53.0534","RCS_SIZE":"LARGE","EPHEMERIS_TYPE":"0","PERIAPSIS":"545.789","FILE":"3227094","TLE_LINE1":"1 44928U 20001Q   21333.89397461  .00001566  00000-0  12401-3 0  9998","APOAPSIS":"548.645","REF_FRAME":"TEME","OBJECT_TYPE":"PAYLOAD","CENTER_NAME":"EARTH","OBJECT_ID":"2020-001Q","TIME_SYSTEM":"UTC","MEAN_MOTION_DDOT":"0.0000000000000","COUNTRY_CODE":"US","RA_OF_ASC_NODE":"153.3147","SITE":"AFETR","EPOCH":"2021-11-29T21:27:19.406304","ARG_OF_PERICENTER":"85.5782","DECAY_DATE":null,"TLE_LINE2":"2 44928  53.0534 153.3147 0002062  85.5782 274.5443 15.06398764104607","GP_ID":"190748675","ELEMENT_SET_NO":"999","PERIOD":"95.592","SEMIMAJOR_AXIS":"6925.352","NORAD_CAT_ID":"44928","REV_AT_EPOCH":"10460"},{"EPOCH":"2021-11-29T13:08:22.523424","ARG_OF_PERICENTER":"88.8865","MEAN_MOTION_DDOT":"0.0000000000000","RA_OF_ASC_NODE":"154.8543","COUNTRY_CODE":"US","SITE":"AFETR","ELEMENT_SET_NO":"999","GP_ID":"190719330","PERIOD":"95.592","SEMIMAJOR_AXIS":"6925.345","NORAD_CAT_ID":"44929","REV_AT_EPOCH":"10454","DECAY_DATE":null,"TLE_LINE2":"2 44929  53.0528 154.8543 0001959  88.8865 271.2348 15.06401252104547","MEAN_MOTION":"15.06401252","MEAN_ANOMALY":"271.2348","MEAN_ELEMENT_THEORY":"SGP4","INCLINATION":"53.0528","RCS_SIZE":"LARGE","EPHEMERIS_TYPE":"0","PERIAPSIS":"545.853","OBJECT_NAME":"STARLINK-1121","LAUNCH_DATE":"2020-01-07","ECCENTRICITY":"0.00019590","BSTAR":"0.00006655500000","MEAN_MOTION_DOT":"0.00000710","CLASSIFICATION_TYPE":"U","REF_FRAME":"TEME","OBJECT_TYPE":"PAYLOAD","CENTER_NAME":"EARTH","TIME_SYSTEM":"UTC","OBJECT_ID":"2020-001R","FILE":"3226898","TLE_LINE1":"1 44929U 20001R   21333.54748291  .00000710  00000-0  66555-4 0  9992","APOAPSIS":"548.566"},{"REV_AT_EPOCH":"10460","NORAD_CAT_ID":"44930","SEMIMAJOR_AXIS":"6925.371","PERIOD":"95.593","GP_ID":"190747174","ELEMENT_SET_NO":"999","TLE_LINE2":"2 44930  53.0518 153.2279 0001751  94.8529 265.2660 15.06392634104601","DECAY_DATE":null,"ARG_OF_PERICENTER":"94.8529","EPOCH":"2021-11-29T21:53:51.066240","SITE":"AFETR","COUNTRY_CODE":"US","RA_OF_ASC_NODE":"153.2279","MEAN_MOTION_DDOT":"0.0000000000000","TIME_SYSTEM":"UTC","OBJECT_ID":"2020-001S","CENTER_NAME":"EARTH","OBJECT_TYPE":"PAYLOAD","REF_FRAME":"TEME","TLE_LINE1":"1 44930U 20001S   21333.91239660  .00000843  00000-0  75500-4 0  9997","APOAPSIS":"548.449","FILE":"3227094","PERIAPSIS":"546.024","EPHEMERIS_TYPE":"0","RCS_SIZE":"LARGE","INCLINATION":"53.0518","MEAN_ANOMALY":"265.2660","MEAN_ELEMENT_THEORY":"SGP4","MEAN_MOTION":"15.06392634","MEAN_MOTION_DOT":"0.00000843","CLASSIFICATION_TYPE":"U","LAUNCH_DATE":"2020-01-07","BSTAR":"0.00007550000000","ECCENTRICITY":"0.00017510","OBJECT_NAME":"STARLINK-1123"},{"MEAN_MOTION_DDOT":"0.0000000000000","SITE":"AFETR","RA_OF_ASC_NODE":"153.2603","COUNTRY_CODE":"US","ARG_OF_PERICENTER":"60.2670","EPOCH":"2021-11-29T21:09:05.481216","TLE_LINE2":"2 44931  53.0545 153.2603 0000900  60.2670 299.8409 15.08291696105346","DECAY_DATE":null,"ELEMENT_SET_NO":"999","GP_ID":"190747424","PERIOD":"95.472","NORAD_CAT_ID":"44931","REV_AT_EPOCH":"10534","SEMIMAJOR_AXIS":"6919.557","BSTAR":"0.00146680000000","LAUNCH_DATE":"2020-01-07","ECCENTRICITY":"0.00009000","CLASSIFICATION_TYPE":"U","MEAN_MOTION_DOT":"0.00022787","OBJECT_NAME":"STARLINK-1128","MEAN_MOTION":"15.08291696","PERIAPSIS":"540.799","MEAN_ANOMALY":"299.8409","MEAN_ELEMENT_THEORY":"SGP4","RCS_SIZE":"LARGE","EPHEMERIS_TYPE":"0","INCLINATION":"53.0545","TLE_LINE1":"1 44931U 20001T   21333.88131344  .00022787  00000-0  14668-2 0  9991","APOAPSIS":"542.045","FILE":"3227094","CENTER_NAME":"EARTH","REF_FRAME":"TEME","OBJECT_TYPE":"PAYLOAD","TIME_SYSTEM":"UTC","OBJECT_ID":"2020-001T"},{"CLASSIFICATION_TYPE":"U","MEAN_MOTION_DOT":"-0.00001197","LAUNCH_DATE":"2020-01-07","BSTAR":"-0.00006148100000","ECCENTRICITY":"0.00021550","OBJECT_NAME":"STARLINK-1130","MEAN_MOTION":"15.06394099","PERIAPSIS":"545.739","EPHEMERIS_TYPE":"0","RCS_SIZE":"LARGE","INCLINATION":"53.0528","MEAN_ELEMENT_THEORY":"SGP4","MEAN_ANOMALY":"271.6328","APOAPSIS":"548.724","TLE_LINE1":"1 44932U 20001U   21333.90133288 -.00001197  00000-0 -61481-4 0  9995","FILE":"3227094","CENTER_NAME":"EARTH","OBJECT_TYPE":"PAYLOAD","REF_FRAME":"TEME","OBJECT_ID":"2020-001U","TIME_SYSTEM":"UTC","MEAN_MOTION_DDOT":"0.0000000000000","SITE":"AFETR","COUNTRY_CODE":"US","RA_OF_ASC_NODE":"153.2792","ARG_OF_PERICENTER":"88.4908","EPOCH":"2021-11-29T21:37:55.160832","TLE_LINE2":"2 44932  53.0528 153.2792 0002155  88.4908 271.6328 15.06394099105838","DECAY_DATE":null,"PERIOD":"95.593","ELEMENT_SET_NO":"999","GP_ID":"190748176","REV_AT_EPOCH":"10583","NORAD_CAT_ID":"44932","SEMIMAJOR_AXIS":"6925.367"},{"TLE_LINE1":"1 44933U 20001V   21333.52905446 -.00001180  00000-0 -60298-4 0  9994","APOAPSIS":"548.698","FILE":"3226898","CENTER_NAME":"EARTH","REF_FRAME":"TEME","OBJECT_TYPE":"PAYLOAD","OBJECT_ID":"2020-001V","TIME_SYSTEM":"UTC","LAUNCH_DATE":"2020-01-07","ECCENTRICITY":"0.00021060","BSTAR":"-0.00006029800000","MEAN_MOTION_DOT":"-0.00001180","CLASSIFICATION_TYPE":"U","OBJECT_NAME":"STARLINK-1144","MEAN_MOTION":"15.06391677","PERIAPSIS":"545.781","MEAN_ANOMALY":"273.6268","MEAN_ELEMENT_THEORY":"SGP4","INCLINATION":"53.0538","RCS_SIZE":"LARGE","EPHEMERIS_TYPE":"0","TLE_LINE2":"2 44933  53.0538 154.9456 0002106  86.4962 273.6268 15.06391677105833","DECAY_DATE":null,"GP_ID":"190719830","ELEMENT_SET_NO":"999","PERIOD":"95.593","NORAD_CAT_ID":"44933","REV_AT_EPOCH":"10583","SEMIMAJOR_AXIS":"6925.374","MEAN_MOTION_DDOT":"0.0000000000000","SITE":"AFETR","COUNTRY_CODE":"US","RA_OF_ASC_NODE":"154.9456","ARG_OF_PERICENTER":"86.4962","EPOCH":"2021-11-29T12:41:50.305344"}];
